ONEWEB-0120             
1 47266U 20100J   26188.43182610  .00000464  00000+0  12550-2 0  9996
2 47266  87.8953 346.6435 0002036  96.9652 263.1708 13.12441722267386
ONEWEB-0121             
1 47267U 20100K   26188.41982683  .00000349  00000+0  93586-3 0  9994
2 47267  87.8964 346.6336 0001525  92.8894 267.2409 13.12442937267296
ONEWEB-0122             
1 47268U 20100L   26188.41389345  .00000164  00000+0  42156-3 0  9993
2 47268  87.8966 346.6398 0001909  99.3512 260.7833 13.12445036267205
ONEWEB-0123             
1 47269U 20100M   26188.40965937  .00000031  00000+0  50554-4 0  9995
2 47269  87.8953 346.6455 0001896  91.7469 268.3877 13.12443182267345
ONEWEB-0124             
1 47270U 20100N   26188.39949160 -.00000280  00000+0 -81473-3 0  9996
2 47270  87.8952 346.6502 0001735  92.8874 267.2454 13.12443167267222
ONEWEB-0125             
1 47271U 20100P   26188.37746892 -.00000164  00000+0 -49143-3 0  9991
2 47271  87.8964 346.6402 0001682  85.8789 274.2532 13.12441649267287
ONEWEB-0126             
1 47272U 20100Q   26188.39794544 -.00000302  00000+0 -87485-3 0  9996
2 47272  87.8956 346.6506 0001967  94.8422 265.2931 13.12442758267357
ONEWEB-0127             
1 47273U 20100R   26188.36392375  .00000322  00000+0  86006-3 0  9998
2 47273  87.8951 346.6550 0001965  95.9876 264.1477 13.12441941267373
ONEWEB-0128             
1 47274U 20100S   26188.38593927 -.00000367  00000+0 -10559-2 0  9997
2 47274  87.8950 346.6644 0001640 102.9514 257.1798 13.12442057267394
ONEWEB-0129             
1 47275U 20100T   26188.36561407  .00000245  00000+0  64537-3 0  9993
2 47275  87.8963 346.6441 0002925  99.5098 260.6361 13.12440940267326
ONEWEB-0130             
1 47276U 20100U   26187.93529503 -.00000365  00000+0 -10505-2 0  9997
2 47276  87.8959 346.7260 0001875  98.0001 262.1340 13.12442786267237
ONEWEB-0131             
1 47277U 20100V   26188.38932980 -.00000370  00000+0 -10639-2 0  9999
2 47277  87.8953 346.6514 0001758  99.8954 260.2373 13.12441798267337
ONEWEB-0132             
1 47278U 20100W   26188.41813264  .00000292  00000+0  77655-3 0  9990
2 47278  87.8956 346.6479 0001791  96.2045 263.9288 13.12442905267235
ONEWEB-0133             
1 47279U 20100X   26188.43493703  .00000393  00000+0  10558-2 0  9995
2 47279  87.8969 346.6227 0001701  96.5281 263.6041 13.12442711267393
ONEWEB-0134             
1 47280U 20100Y   26188.40457388 -.00000147  00000+0 -44511-3 0  9999
2 47280  87.8966 346.6259 0001957 102.1624 257.9724 13.12443265267361
ONEWEB-0135             
1 47281U 20100Z   26188.37577470 -.00000062  00000+0 -20841-3 0  9997
2 47281  87.8953 346.6521 0001875 105.0337 255.0999 13.12441871267388
